{
    "links": {
        "self": "http://www.neowsapp.com/rest/v1/neo/3698546?api_key=iIulBulltgU6a56xZRHN4H3l9WmuAYTsLGpBGhQ2"
    },
    "id": "3698546",
    "neo_reference_id": "3698546",
    "name": "(2014 HU198)",
    "designation": "2014 HU198",
    "nasa_jpl_url": "http://ssd.jpl.nasa.gov/sbdb.cgi?sstr=3698546",
    "absolute_magnitude_h": 26.6,
    "estimated_diameter": {
        "kilometers": {
            "estimated_diameter_min": 0.0127219879,
            "estimated_diameter_max": 0.0284472297
        },
        "meters": {
            "estimated_diameter_min": 12.7219878539,
            "estimated_diameter_max": 28.4472296503
        },
        "miles": {
            "estimated_diameter_min": 0.0079050743,
            "estimated_diameter_max": 0.0176762835
        },
        "feet": {
            "estimated_diameter_min": 41.7388066307,
            "estimated_diameter_max": 93.330808926
        }
    },
    "is_potentially_hazardous_asteroid": false,
    "close_approach_data": [
        {
            "close_approach_date": "2014-04-25",
            "close_approach_date_full": "2014-Apr-25 05:26",
            "epoch_date_close_approach": 1398403560000,
            "relative_velocity": {
                "kilometers_per_second": "7.5465592841",
                "kilometers_per_hour": "27167.6134225998",
                "miles_per_hour": "16880.8984625038"
            },
            "miss_distance": {
                "astronomical": "0.1114236605",
                "lunar": "43.3438039345",
                "kilometers": "16668742.278403135",
                "miles": "10357476.169247863"
            },
            "orbiting_body": "Earth"
        }
    ],
    "orbital_data": {
        "orbit_id": "3",
        "orbit_determination_date": "2017-04-06 08:40:47",
        "first_observation_date": "2014-04-28",
        "last_observation_date": "2014-04-29",
        "data_arc_in_days": 1,
        "observations_used": 24,
        "orbit_uncertainty": "9",
        "minimum_orbit_intersection": ".110644",
        "jupiter_tisserand_invariant": "3.755",
        "epoch_osculation": "2456776.5",
        "eccentricity": ".4272330616924848",
        "semi_major_axis": "1.948639835447778",
        "inclination": "11.39961117565618",
        "ascending_node_longitude": "32.25503066994035",
        "orbital_period": "993.5638725951735",
        "perihelion_distance": "1.116116472413484",
        "perihelion_argument": "184.3554430822696",
        "aphelion_distance": "2.781163198482072",
        "perihelion_time": "2456773.917240686642",
        "mean_anomaly": ".9358163862986223",
        "mean_motion": ".3623320150114612",
        "equinox": "J2000",
        "orbit_class": {
            "orbit_class_type": "AMO",
            "orbit_class_description": "Near-Earth asteroid orbits similar to that of 1221 Amor",
            "orbit_class_range": "1.017 AU < q (perihelion) < 1.3 AU"
        }
    },
    "is_sentry_object": false
}